QIANFAN-49              
1 62250U 24232P   25360.24592319  .00000066  00000+0  83309-4 0  9997
2 62250  89.0014  39.8736 0015366 149.9488 210.2548 13.50981186 69660
QIANFAN-50              
1 62251U 24232Q   25360.27060802  .00000063  00000+0  78265-4 0  9990
2 62251  89.0019  39.8799 0016996 151.7547 208.4530 13.50977991 69694
QIANFAN-51              
1 62252U 24232R   25360.25416081  .00000068  00000+0  86958-4 0  9996
2 62252  89.0013  39.8747 0014386 154.1716 206.0156 13.50980706 69683
QIANFAN-52              
1 62253U 24232S   25360.20892354  .00000063  00000+0  78691-4 0  9993
2 62253  89.0009  39.7523 0016593 147.9639 212.2525 13.50978834 69763
QIANFAN-53              
1 62254U 24232T   25360.26237605  .00000070  00000+0  90128-4 0  9999
2 62254  89.0016  39.8524 0015449 148.4281 211.7800 13.50981265 69731
QIANFAN-54              
1 62255U 24232U   25360.22945690  .00000074  00000+0  96150-4 0  9991
2 62255  89.0008  39.5330 0002707 149.3787 210.7523 13.50981564101234
QIANFAN-55              
1 62785U 25016A   25360.25544072  .00000169  00000+0  24253-3 0  9991
2 62785  88.9784 101.8164 0015686 311.6506  48.3301 13.50979946 49019
QIANFAN-56              
1 62786U 25016B   25360.27193782  .00000174  00000+0  25074-3 0  9990
2 62786  88.9757 101.6475 0014349 314.4577  45.5399 13.50982639 49061
